ONEWEB-0545             
1 54647U 22166F   25025.41880562  .00000029  00000+0  38476-4 0  9993
2 54647  87.9324 345.1742 0001258  70.6957 289.4313 13.21824657104427
ONEWEB-0580             
1 54648U 22166G   25025.39199240  .00000096  00000+0  19977-3 0  9995
2 54648  87.9331 345.1649 0001640  67.8753 292.2555 13.21828200104461
ONEWEB-0582             
1 54649U 22166H   25025.43457529 -.00000009  00000+0 -54067-4 0  9994
2 54649  87.9330 345.1869 0001646  62.2678 297.8623 13.21823998104440
ONEWEB-0583             
1 54650U 22166J   25025.44562652  .00000116  00000+0  24907-3 0  9997
2 54650  87.9328 345.1811 0001669  79.1938 280.9384 13.21826763104458
ONEWEB-0584             
1 54651U 22166K   25025.39041404  .00000074  00000+0  14710-3 0  9993
2 54651  87.9334 345.1693 0001762  66.6542 293.4778 13.21824315104435
ONEWEB-0585             
1 54652U 22166L   25025.41564126  .00000055  00000+0  10283-3 0  9998
2 54652  87.9323 345.1666 0001853  82.6428 277.4917 13.21828944104446
ONEWEB-0586             
1 54653U 22166M   25025.42826712  .00000076  00000+0  15279-3 0  9995
2 54653  87.9328 345.1764 0001624  76.1270 284.0045 13.21830355104445
ONEWEB-0587             
1 54654U 22166N   25025.43774269 -.00000039  00000+0 -12652-3 0  9999
2 54654  87.9329 345.1265 0002032  86.9624 273.1743 13.21824402104607
